CCSDS_OMM_VERS = 2.0
CREATION_DATE  = 
ORIGINATOR     = 

OBJECT_NAME    = PROGRESS-MS 32
OBJECT_ID      = 2025-204A
CENTER_NAME    = EARTH
REF_FRAME      = TEME
TIME_SYSTEM    = UTC
MEAN_ELEMENT_THEORY = SGP/SGP4

EPOCH          = 2025-11-13T09:16:25.350528
MEAN_MOTION    = 15.49618030
ECCENTRICITY   = .00041651
INCLINATION    = 51.6331
RA_OF_ASC_NODE = 287.7803
ARG_OF_PERICENTER = 65.1573
MEAN_ANOMALY   = 294.9849

EPHEMERIS_TYPE = 0
CLASSIFICATION_TYPE = U
NORAD_CAT_ID   = 65586
ELEMENT_SET_NO = 999
REV_AT_EPOCH   = 27
BSTAR          = .34613939E-3
MEAN_MOTION_DOT = .19086E-3
MEAN_MOTION_DDOT = 0

CCSDS_OMM_VERS = 2.0
CREATION_DATE  = 
ORIGINATOR     = 

OBJECT_NAME    = CYGNUS NG-23
OBJECT_ID      = 2025-208A
CENTER_NAME    = EARTH
REF_FRAME      = TEME
TIME_SYSTEM    = UTC
MEAN_ELEMENT_THEORY = SGP/SGP4

EPOCH          = 2025-11-13T09:16:25.350528
MEAN_MOTION    = 15.49618030
ECCENTRICITY   = .00041651
INCLINATION    = 51.6331
RA_OF_ASC_NODE = 287.7803
ARG_OF_PERICENTER = 65.1573
MEAN_ANOMALY   = 294.9849

EPHEMERIS_TYPE = 0
CLASSIFICATION_TYPE = U
NORAD_CAT_ID   = 65616
ELEMENT_SET_NO = 999
REV_AT_EPOCH   = 22
BSTAR          = .34613939E-3
MEAN_MOTION_DOT = .19086E-3
MEAN_MOTION_DDOT = 0

CCSDS_OMM_VERS = 2.0
CREATION_DATE  = 
ORIGINATOR     = 

OBJECT_NAME    = DRAGONFLY
OBJECT_ID      = 1998-067XH
CENTER_NAME    = EARTH
REF_FRAME      = TEME
TIME_SYSTEM    = UTC
MEAN_ELEMENT_THEORY = SGP/SGP4

EPOCH          = 2025-11-13T03:30:20.972448
MEAN_MOTION    = 15.62653356
ECCENTRICITY   = .00047405
INCLINATION    = 51.6293
RA_OF_ASC_NODE = 286.1780
ARG_OF_PERICENTER = 117.7600
MEAN_ANOMALY   = 242.3876

EPHEMERIS_TYPE = 0
CLASSIFICATION_TYPE = U
NORAD_CAT_ID   = 65729
ELEMENT_SET_NO = 999
REV_AT_EPOCH   = 852
BSTAR          = .18128414E-2
MEAN_MOTION_DOT = .16857E-2
MEAN_MOTION_DDOT = 0

CCSDS_OMM_VERS = 2.0
CREATION_DATE  = 
ORIGINATOR     = 

OBJECT_NAME    = 1998-067XJ
OBJECT_ID      = 1998-067XJ
CENTER_NAME    = EARTH
REF_FRAME      = TEME
TIME_SYSTEM    = UTC
MEAN_ELEMENT_THEORY = SGP/SGP4

EPOCH          = 2025-11-13T07:00:22.656960
MEAN_MOTION    = 15.76803775
ECCENTRICITY   = .0011176
INCLINATION    = 51.6252
RA_OF_ASC_NODE = 283.3843
ARG_OF_PERICENTER = 108.0958
MEAN_ANOMALY   = 252.1260

EPHEMERIS_TYPE = 0
CLASSIFICATION_TYPE = U
NORAD_CAT_ID   = 65730
ELEMENT_SET_NO = 999
REV_AT_EPOCH   = 857
BSTAR          = .38822255E-2
MEAN_MOTION_DOT = .694102E-2
MEAN_MOTION_DDOT = 0

CCSDS_OMM_VERS = 2.0
CREATION_DATE  = 
ORIGINATOR     = 

OBJECT_NAME    = 1998-067XK
OBJECT_ID      = 1998-067XK
CENTER_NAME    = EARTH
REF_FRAME      = TEME
TIME_SYSTEM    = UTC
MEAN_ELEMENT_THEORY = SGP/SGP4

EPOCH          = 2025-11-13T07:35:28.322592
MEAN_MOTION    = 15.59844654
ECCENTRICITY   = .00056583
INCLINATION    = 51.6323
RA_OF_ASC_NODE = 285.8165
ARG_OF_PERICENTER = 94.7786
MEAN_ANOMALY   = 265.3853

EPHEMERIS_TYPE = 0
CLASSIFICATION_TYPE = U
NORAD_CAT_ID   = 65731
ELEMENT_SET_NO = 999
REV_AT_EPOCH   = 854
BSTAR          = .14860011E-2
MEAN_MOTION_DOT = .123194E-2
MEAN_MOTION_DDOT = 0

CCSDS_OMM_VERS = 2.0
CREATION_DATE  = 
ORIGINATOR     = 

OBJECT_NAME    = RSP-03
OBJECT_ID      = 1998-067XL
CENTER_NAME    = EARTH
REF_FRAME      = TEME
TIME_SYSTEM    = UTC
MEAN_ELEMENT_THEORY = SGP/SGP4

EPOCH          = 2025-11-13T07:05:46.358016
MEAN_MOTION    = 15.61230702
ECCENTRICITY   = .00063323
INCLINATION    = 51.6299
RA_OF_ASC_NODE = 285.6773
ARG_OF_PERICENTER = 97.4707
MEAN_ANOMALY   = 262.7006

EPHEMERIS_TYPE = 0
CLASSIFICATION_TYPE = U
NORAD_CAT_ID   = 65732
ELEMENT_SET_NO = 999
REV_AT_EPOCH   = 855
BSTAR          = .17431989E-2
MEAN_MOTION_DOT = .153114E-2
MEAN_MOTION_DDOT = 0

CCSDS_OMM_VERS = 2.0
CREATION_DATE  = 
ORIGINATOR     = 

OBJECT_NAME    = GHS-01
OBJECT_ID      = 1998-067XM
CENTER_NAME    = EARTH
REF_FRAME      = TEME
TIME_SYSTEM    = UTC
MEAN_ELEMENT_THEORY = SGP/SGP4

EPOCH          = 2025-11-13T03:09:23.148288
MEAN_MOTION    = 15.63707009
ECCENTRICITY   = .00052725
INCLINATION    = 51.6307
RA_OF_ASC_NODE = 286.0826
ARG_OF_PERICENTER = 116.0346
MEAN_ANOMALY   = 244.1192

EPHEMERIS_TYPE = 0
CLASSIFICATION_TYPE = U
NORAD_CAT_ID   = 65733
ELEMENT_SET_NO = 999
REV_AT_EPOCH   = 853
BSTAR          = .19237583E-2
MEAN_MOTION_DOT = .186914E-2
MEAN_MOTION_DDOT = 0

CCSDS_OMM_VERS = 2.0
CREATION_DATE  = 
ORIGINATOR     = 

OBJECT_NAME    = YOTSUBA-KULOVER
OBJECT_ID      = 1998-067XN
CENTER_NAME    = EARTH
REF_FRAME      = TEME
TIME_SYSTEM    = UTC
MEAN_ELEMENT_THEORY = SGP/SGP4

EPOCH          = 2025-11-13T04:34:53.142240
MEAN_MOTION    = 15.54962399
ECCENTRICITY   = .00025982
INCLINATION    = 51.6317
RA_OF_ASC_NODE = 287.9757
ARG_OF_PERICENTER = 53.1232
MEAN_ANOMALY   = 306.9997

EPHEMERIS_TYPE = 0
CLASSIFICATION_TYPE = U
NORAD_CAT_ID   = 65941
ELEMENT_SET_NO = 999
REV_AT_EPOCH   = 525
BSTAR          = .15049018E-2
MEAN_MOTION_DOT = .103577E-2
MEAN_MOTION_DDOT = 0

CCSDS_OMM_VERS = 2.0
CREATION_DATE  = 
ORIGINATOR     = 

OBJECT_NAME    = BOTAN
OBJECT_ID      = 1998-067XP
CENTER_NAME    = EARTH
REF_FRAME      = TEME
TIME_SYSTEM    = UTC
MEAN_ELEMENT_THEORY = SGP/SGP4

EPOCH          = 2025-11-13T15:01:33.225600
MEAN_MOTION    = 15.56552899
ECCENTRICITY   = .00048199
INCLINATION    = 51.6312
RA_OF_ASC_NODE = 285.6332
ARG_OF_PERICENTER = 67.8046
MEAN_ANOMALY   = 292.3457

EPHEMERIS_TYPE = 0
CLASSIFICATION_TYPE = U
NORAD_CAT_ID   = 65942
ELEMENT_SET_NO = 999
REV_AT_EPOCH   = 532
BSTAR          = .1900966E-2
MEAN_MOTION_DOT = .139578E-2
MEAN_MOTION_DDOT = 0

CCSDS_OMM_VERS = 2.0
CREATION_DATE  = 
ORIGINATOR     = 

OBJECT_NAME    = E-KAGAKU-1
OBJECT_ID      = 1998-067XQ
CENTER_NAME    = EARTH
REF_FRAME      = TEME
TIME_SYSTEM    = UTC
MEAN_ELEMENT_THEORY = SGP/SGP4

EPOCH          = 2025-11-13T03:01:43.267872
MEAN_MOTION    = 15.54929663
ECCENTRICITY   = .00043926
INCLINATION    = 51.6324
RA_OF_ASC_NODE = 288.2951
ARG_OF_PERICENTER = 49.9249
MEAN_ANOMALY   = 310.2126

EPHEMERIS_TYPE = 0
CLASSIFICATION_TYPE = U
NORAD_CAT_ID   = 65943
ELEMENT_SET_NO = 999
REV_AT_EPOCH   = 524
BSTAR          = .12441141E-2
MEAN_MOTION_DOT = .85261E-3
MEAN_MOTION_DDOT = 0

CCSDS_OMM_VERS = 2.0
CREATION_DATE  = 
ORIGINATOR     = 

OBJECT_NAME    = HRC MONOBLOCK CAMERA
OBJECT_ID      = 1998-067XR
CENTER_NAME    = EARTH
REF_FRAME      = TEME
TIME_SYSTEM    = UTC
MEAN_ELEMENT_THEORY = SGP/SGP4

EPOCH          = 2025-11-13T15:02:51.797760
MEAN_MOTION    = 15.51652964
ECCENTRICITY   = .0004835
INCLINATION    = 51.6314
RA_OF_ASC_NODE = 286.3861
ARG_OF_PERICENTER = 64.8507
MEAN_ANOMALY   = 295.2984

EPHEMERIS_TYPE = 0
CLASSIFICATION_TYPE = U
NORAD_CAT_ID   = 66052
ELEMENT_SET_NO = 999
REV_AT_EPOCH   = 431
BSTAR          = .94082887E-3
MEAN_MOTION_DOT = .56912E-3
MEAN_MOTION_DDOT = 0

CCSDS_OMM_VERS = 2.0
CREATION_DATE  = 
ORIGINATOR     = 

OBJECT_NAME    = HTV-X1
OBJECT_ID      = 2025-241A
CENTER_NAME    = EARTH
REF_FRAME      = TEME
TIME_SYSTEM    = UTC
MEAN_ELEMENT_THEORY = SGP/SGP4

EPOCH          = 2025-11-13T09:16:25.350528
MEAN_MOTION    = 15.49618030
ECCENTRICITY   = .00041651
INCLINATION    = 51.6331
RA_OF_ASC_NODE = 287.7803
ARG_OF_PERICENTER = 65.1573
MEAN_ANOMALY   = 294.9849

EPHEMERIS_TYPE = 0
CLASSIFICATION_TYPE = U
NORAD_CAT_ID   = 66174
ELEMENT_SET_NO = 999
REV_AT_EPOCH   = 145
BSTAR          = .34613939E-3
MEAN_MOTION_DOT = .19086E-3
MEAN_MOTION_DDOT = 0

