[{"norad_id":"65586","company":"STATIONS","tle_line2":"2 65586  51.6331 287.7803 0004165  65.1573 294.9849 15.49618030   270","launch_date":"2025-09-11","type":"LEO","tle_line1":"1 65586U 25204A   25317.38640452  .00019086  00000+0  34614-3 0  9997","satellite_name":"PROGRESS-MS 32"},{"norad_id":"65616","company":"STATIONS","tle_line2":"2 65616  51.6331 287.7803 0004165  65.1573 294.9849 15.49618030   229","launch_date":"2025-09-14","type":"LEO","tle_line1":"1 65616U 25208A   25317.38640452  .00019086  00000+0  34614-3 0  9995","satellite_name":"CYGNUS NG-23"},{"norad_id":"65729","company":"STATIONS","tle_line2":"2 65729  51.6293 286.1780 0004740 117.7600 242.3876 15.62653356  8525","launch_date":"1998-11-20","type":"LEO","tle_line1":"1 65729U 98067XH  25317.14607607  .00168570  00000+0  18128-2 0  9996","satellite_name":"DRAGONFLY"},{"norad_id":"65730","company":"STATIONS","tle_line2":"2 65730  51.6252 283.3843 0011176 108.0958 252.1260 15.76803775  8579","launch_date":"1998-11-20","type":"LEO","tle_line1":"1 65730U 98067XJ  25317.29192890  .00694102  00000+0  38822-2 0  9995","satellite_name":"1998-067XJ"},{"norad_id":"65731","company":"STATIONS","tle_line2":"2 65731  51.6323 285.8165 0005658  94.7786 265.3853 15.59844654  8544","launch_date":"1998-11-20","type":"LEO","tle_line1":"1 65731U 98067XK  25317.31630003  .00123194  00000+0  14860-2 0  9996","satellite_name":"1998-067XK"},{"norad_id":"65732","company":"STATIONS","tle_line2":"2 65732  51.6299 285.6773 0006332  97.4707 262.7006 15.61230702  8551","launch_date":"1998-11-20","type":"LEO","tle_line1":"1 65732U 98067XL  25317.29567544  .00153114  00000+0  17432-2 0  9996","satellite_name":"RSP-03"},{"norad_id":"65733","company":"STATIONS","tle_line2":"2 65733  51.6307 286.0826 0005272 116.0346 244.1192 15.63707009  8534","launch_date":"1998-11-20","type":"LEO","tle_line1":"1 65733U 98067XM  25317.13151792  .00186914  00000+0  19238-2 0  9994","satellite_name":"GHS-01"},{"norad_id":"65941","company":"STATIONS","tle_line2":"2 65941  51.6317 287.9757 0002598  53.1232 306.9997 15.54962399  5253","launch_date":"1998-11-20","type":"LEO","tle_line1":"1 65941U 98067XN  25317.19089285  .00103577  00000+0  15049-2 0  9998","satellite_name":"YOTSUBA-KULOVER"},{"norad_id":"65942","company":"STATIONS","tle_line2":"2 65942  51.6312 285.6332 0004819  67.8046 292.3457 15.56552899  5325","launch_date":"1998-11-20","type":"LEO","tle_line1":"1 65942U 98067XP  25317.62607900  .00139578  00000+0  19010-2 0  9999","satellite_name":"BOTAN"},{"norad_id":"65943","company":"STATIONS","tle_line2":"2 65943  51.6324 288.2951 0004392  49.9249 310.2126 15.54929663  5246","launch_date":"1998-11-20","type":"LEO","tle_line1":"1 65943U 98067XQ  25317.12619523  .00085261  00000+0  12441-2 0  9999","satellite_name":"E-KAGAKU-1"},{"norad_id":"66052","company":"STATIONS","tle_line2":"2 66052  51.6314 286.3861 0004835  64.8507 295.2984 15.51652964  4316","launch_date":"1998-11-20","type":"LEO","tle_line1":"1 66052U 98067XR  25317.62698840  .00056912  00000+0  94083-3 0  9999","satellite_name":"HRC MONOBLOCK CAMERA"},{"norad_id":"66174","company":"STATIONS","tle_line2":"2 66174  51.6331 287.7803 0004165  65.1573 294.9849 15.49618030  1455","launch_date":"2025-10-26","type":"LEO","tle_line1":"1 66174U 25241A   25317.38640452  .00019086  00000+0  34614-3 0  9992","satellite_name":"HTV-X1"}]